NORAD_CAT_ID,OBJECT_NAME,OBJECT_TYPE,EPOCH,MEAN_MOTION,ECCENTRICITY,INCLINATION,RA_OF_ASC_NODE,ARG_OF_PERICENTER,MEAN_ANOMALY,BSTAR,MEAN_MOTION_DOT,MEAN_MOTION_DDOT,TLE_LINE0,TLE_LINE1,TLE_LINE2,SEMIMAJOR_AXIS,PERIOD,APOGEE,PERIGEE,DECAYED
54190.0,STARLINK-5281,PAYLOAD,2023-04-08 11:20:36,15.08851619,0.0001197,53.2155,100.6728,84.7668,275.3461,0.00030024,4.495e-05,0.0,0 STARLINK-5281,1 54190U 22141AK  23098.47264416  .00004495  00000-0  30024-3 0  9999,2 54190  53.2155 100.6728 0001197  84.7668 275.3461 15.08851619 25260,6917.845,95.437,540.538,538.882,0.0
54190.0,STARLINK-5281,PAYLOAD,2023-04-08 17:42:09,15.08843547,0.0001136,53.2156,99.4844,76.696,283.4159,0.00012456,1.695e-05,0.0,0 STARLINK-5281,1 54190U 22141AK  23098.73760669  .00001695  00000-0  12456-3 0  9997,2 54190  53.2156  99.4844 0001136  76.6960 283.4159 15.08843547 25303,6917.87,95.437,540.52,538.949,0.0
54190.0,STARLINK-5281,PAYLOAD,2023-04-09 11:11:23,15.08847728,0.0001382,53.2163,96.2119,89.3338,270.7812,0.0001834,2.633e-05,0.0,0 STARLINK-5281,1 54190U 22141AK  23099.46624491  .00002633  00000-0  18340-3 0  9991,2 54190  53.2163  96.2119 0001382  89.3338 270.7812 15.08847728 25180,6917.857,95.437,540.678,538.766,0.0
54190.0,STARLINK-5281,PAYLOAD,2023-04-09 19:08:19,15.08843648,0.0001601,53.2155,94.726,86.3661,273.7514,0.00011511,1.545e-05,0.0,0 STARLINK-5281,1 54190U 22141AK  23099.79744707  .00001545  00000-0  11511-3 0  9994,2 54190  53.2155  94.7260 0001601  86.3661 273.7514 15.08843648 25461,6917.869,95.437,540.842,538.627,0.0
54190.0,STARLINK-5281,PAYLOAD,2023-04-10 11:02:10,15.08849231,0.0001274,53.2166,91.7521,91.6179,268.4959,0.00022971,3.371e-05,0.0,0 STARLINK-5281,1 54190U 22141AK  23100.45984433  .00003371  00000-0  22971-3 0  9993,2 54190  53.2166  91.7521 0001274  91.6179 268.4959 15.08849231 25333,6917.852,95.437,540.599,538.836,0.0
54190.0,STARLINK-5281,PAYLOAD,2023-04-11 06:06:48,15.08837811,0.0001489,53.2182,88.1881,97.7669,262.3492,6.5999e-05,7.63e-06,0.0,0 STARLINK-5281,1 54190U 22141AK  23101.25473069  .00000763  00000-0  65999-4 0  9990,2 54190  53.2182  88.1881 0001489  97.7669 262.3492 15.08837811 25683,6917.887,95.438,540.782,538.722,0.0
54190.0,STARLINK-5281,PAYLOAD,2023-04-11 10:52:57,15.08843106,0.0001509,53.2168,87.2924,92.9426,267.1739,0.0001576,2.221e-05,0.0,0 STARLINK-5281,1 54190U 22141AK  23101.45344893  .00002221  00000-0  15760-3 0  9995,2 54190  53.2168  87.2924 0001509  92.9426 267.1739 15.08843106 25485,6917.871,95.437,540.78,538.692,0.0
54190.0,STARLINK-5281,PAYLOAD,2023-04-12 07:32:59,15.08838524,0.000135,53.2175,83.4274,96.0357,264.0789,9.1406e-05,1.167e-05,0.0,0 STARLINK-5281,1 54190U 22141AK  23102.31457194  .00001167  00000-0  91406-4 0  9990,2 54190  53.2175  83.4274 0001350  96.0357 264.0789 15.08838524 25840,6917.885,95.438,540.684,538.816,0.0
54190.0,STARLINK-5281,PAYLOAD,2023-04-13 08:59:09,15.08841851,0.0001337,53.2171,78.6689,89.0765,271.038,0.00011852,1.599e-05,0.0,0 STARLINK-5281,1 54190U 22141AK  23103.37441472  .00001599  00000-0  11852-3 0  9994,2 54190  53.2171  78.6689 0001337  89.0765 271.0380 15.08841851 25776,6917.875,95.437,540.665,538.815,0.0
54190.0,STARLINK-5281,PAYLOAD,2023-04-14 07:14:33,15.08851173,0.000131,53.2166,74.5048,90.8744,269.2398,0.00030969,4.646e-05,0.0,0 STARLINK-5281,1 54190U 22141AK  23104.30177220  .00004646  00000-0  30969-3 0  9991,2 54190  53.2166  74.5048 0001310  90.8744 269.2398 15.08851173 25914,6917.846,95.437,540.617,538.805,0.0
54190.0,STARLINK-5281,PAYLOAD,2023-04-15 07:05:20,15.08852223,0.0001358,53.2163,70.044,94.5425,265.5722,0.00031292,4.697e-05,0.0,0 STARLINK-5281,1 54190U 22141AK  23105.29537166  .00004697  00000-0  31292-3 0  9995,2 54190  53.2163  70.0440 0001358  94.5425 265.5722 15.08852223 26061,6917.843,95.437,540.647,538.769,0.0
54190.0,STARLINK-5281,PAYLOAD,2023-04-16 06:56:07,15.08844512,0.0001344,53.2164,65.5826,107.8804,252.2335,0.00021491,3.134e-05,0.0,0 STARLINK-5281,1 54190U 22141AK  23106.28897239  .00003134  00000-0  21491-3 0  9990,2 54190  53.2164  65.5826 0001344 107.8804 252.2335 15.08844512 26215,6917.867,95.437,540.661,538.802,0.0
54190.0,STARLINK-5281,PAYLOAD,2023-04-17 03:36:08,15.08841277,0.0001272,53.2171,61.7185,111.6393,248.4735,0.00017399,2.482e-05,0.0,0 STARLINK-5281,1 54190U 22141AK  23107.15009519  .00002482  00000-0  17399-3 0  9990,2 54190  53.2171  61.7185 0001272 111.6393 248.4735 15.08841277 26570,6917.876,95.437,540.621,538.862,0.0
54190.0,STARLINK-5281,PAYLOAD,2023-04-17 06:46:54,15.08844716,0.0001376,53.2174,61.1227,113.183,246.9308,0.00029841,4.465e-05,0.0,0 STARLINK-5281,1 54190U 22141AK  23107.28257484  .00004465  00000-0  29841-3 0  9998,2 54190  53.2174  61.1227 0001376 113.1830 246.9308 15.08844716 26369,6917.866,95.437,540.683,538.779,0.0
54190.0,STARLINK-5281,PAYLOAD,2023-04-18 05:02:18,15.08847451,0.0001338,53.2175,56.9616,111.6465,248.4669,0.00036692,5.558e-05,0.0,0 STARLINK-5281,1 54190U 22141AK  23108.20993682  .00005558  00000-0  36692-3 0  9994,2 54190  53.2175  56.9616 0001338 111.6465 248.4669 15.08847451 26736,6917.858,95.437,540.648,538.797,0.0
54190.0,STARLINK-5281,PAYLOAD,2023-04-18 06:37:41,15.08850287,0.0001338,53.2174,56.6637,112.0395,248.074,0.000453,6.931e-05,0.0,0 STARLINK-5281,1 54190U 22141AK  23108.27617604  .00006931  00000-0  45300-3 0  9990,2 54190  53.2174  56.6637 0001338 112.0395 248.0740 15.08850287 26515,6917.849,95.437,540.64,538.788,0.0
54190.0,STARLINK-5281,PAYLOAD,2023-04-18 20:56:10,15.08835553,0.0001573,53.2179,53.985,118.0153,242.0998,9.1052e-05,1.161e-05,0.0,0 STARLINK-5281,1 54190U 22141AK  23108.87234363  .00001161  00000-0  91052-4 0  9999,2 54190  53.2179  53.9850 0001573 118.0153 242.0998 15.08835553 26839,6917.894,95.438,540.847,538.671,0.0
54190.0,STARLINK-5281,PAYLOAD,2023-04-19 06:28:29,15.08841424,0.0001154,53.2175,52.203,108.4533,251.6585,0.00027256,4.053e-05,0.0,0 STARLINK-5281,1 54190U 22141AK  23109.26978356  .00004053  00000-0  27256-3 0  9997,2 54190  53.2175  52.2030 0001154 108.4533 251.6585 15.08841424 26660,6917.876,95.437,540.539,538.943,0.0
54190.0,STARLINK-5281,PAYLOAD,2023-04-20 03:08:30,15.08844721,0.0001151,53.2179,48.338,105.0286,255.0833,0.00027494,4.091e-05,0.0,0 STARLINK-5281,1 54190U 22141AK  23110.13090494  .00004091  00000-0  27494-3 0  9999,2 54190  53.2179  48.3380 0001151 105.0286 255.0833 15.08844721 27021,6917.866,95.437,540.527,538.935,0.0
54190.0,STARLINK-5281,PAYLOAD,2023-04-20 04:43:53,15.08844404,0.0001062,53.2181,48.0402,101.1818,258.9293,0.00028853,4.308e-05,0.0,0 STARLINK-5281,1 54190U 22141AK  23110.19714432  .00004308  00000-0  28853-3 0  9991,2 54190  53.2181  48.0402 0001062 101.1818 258.9293 15.08844404 26800,6917.867,95.437,540.467,538.997,0.0
54190.0,STARLINK-5281,PAYLOAD,2023-04-20 23:48:31,15.08836055,0.0001572,53.2195,44.4743,87.389,272.7282,8.8327e-05,1.118e-05,0.0,0 STARLINK-5281,1 54190U 22141AK  23110.99203398  .00001118  00000-0  88327-4 0  9992,2 54190  53.2195  44.4743 0001572  87.3890 272.7282 15.08836055 27158,6917.892,95.438,540.845,538.67,0.0
54190.0,STARLINK-5281,PAYLOAD,2023-04-21 12:31:36,15.08842296,0.0001077,53.2183,42.0935,92.3968,267.7147,0.00019772,2.86e-05,0.0,0 STARLINK-5281,1 54190U 22141AK  23111.52195072  .00002860  00000-0  19772-3 0  9993,2 54190  53.2183  42.0935 0001077  92.3968 267.7147 15.08842296 27006,6917.873,95.437,540.483,538.993,0.0
54190.0,STARLINK-5281,PAYLOAD,2023-04-22 01:14:41,15.08851363,6.2e-05,53.218,39.716,97.1179,262.9884,0.00028204,4.205e-05,0.0,0 STARLINK-5281,1 54190U 22141AK  23112.05186477  .00004205  00000-0  28204-3 0  9996,2 54190  53.2180  39.7160 0000620  97.1179 262.9884 15.08851363 27310,6917.846,95.437,540.14,539.282,0.0
54190.0,STARLINK-5281,PAYLOAD,2023-04-22 02:50:03,15.08864929,0.0001062,53.2182,39.418,90.3329,269.7785,0.00051522,7.927e-05,0.0,0 STARLINK-5281,1 54190U 22141AK  23112.11809825  .00007927  00000-0  51522-3 0  9995,2 54190  53.2182  39.4180 0001062  90.3329 269.7785 15.08864929 27322,6917.804,95.436,540.404,538.935,0.0
54190.0,STARLINK-5281,PAYLOAD,2023-04-23 04:16:14,15.08853796,0.0001165,53.2187,34.6606,83.7737,276.3388,0.00025461,3.768e-05,0.0,0 STARLINK-5281,1 54190U 22141AK  23113.17794111  .00003768  00000-0  25461-3 0  9995,2 54190  53.2187  34.6606 0001165  83.7737 276.3388 15.08853796 27255,6917.838,95.437,540.509,538.897,0.0
54190.0,STARLINK-5281,PAYLOAD,2023-04-24 00:56:14,15.08851375,8e-05,53.2174,30.7957,69.9114,290.1964,0.0001855,2.667e-05,0.0,0 STARLINK-5281,1 54190U 22141AK  23114.03905835  .00002667  00000-0  18550-3 0  9996,2 54190  53.2174  30.7957 0000800  69.9114 290.1964 15.08851375 27612,6917.846,95.437,540.264,539.157,0.0
54190.0,STARLINK-5281,PAYLOAD,2023-04-24 04:07:00,15.08886917,0.0001191,53.2186,30.2007,87.0382,273.0747,0.0012605,0.00019855,0.0,0 STARLINK-5281,1 54190U 22141AK  23114.17153076  .00019855  00000-0  12605-2 0  9994,2 54190  53.2186  30.2007 0001191  87.0382 273.0747 15.08886917 27404,6917.737,95.435,540.426,538.778,0.0
54190.0,STARLINK-5281,PAYLOAD,2023-04-25 00:46:59,15.08878316,0.0001187,53.218,26.3321,88.394,271.7188,0.00054898,8.469e-05,0.0,0 STARLINK-5281,1 54190U 22141AK  23115.03263584  .00008469  00000-0  54898-3 0  9996,2 54190  53.2180  26.3321 0001187  88.3940 271.7188 15.08878316 27769,6917.763,95.435,540.449,538.807,0.0
54190.0,STARLINK-5281,PAYLOAD,2023-04-26 05:24:00,15.08789943,0.0001184,53.2178,20.98,101.8277,258.2848,-0.00068985,-0.00011235,0.0,0 STARLINK-5281,1 54190U 22141AK  23116.22500394 -.00011235  00000-0 -68985-3 0  9990,2 54190  53.2178  20.9800 0001184 101.8277 258.2848 15.08789943 27714,6918.033,95.441,540.717,539.079,0.0
54190.0,STARLINK-5281,PAYLOAD,2023-04-26 19:42:25,15.08849928,0.0001189,53.218,18.3064,73.4351,286.6772,0.000106,1.4e-05,0.0,0 STARLINK-5281,1 54190U 22141AK  23116.82113364  .00001400  00000-0  10600-3 0  9995,2 54190  53.2180  18.3064 0001189  73.4351 286.6772 15.08849928 27803,6917.85,95.437,540.538,538.893,0.0
